APRIZESAT 2             
1 28366U 04025A   26201.96154869  .00000135  00000+0  54619-4 0  9992
2 28366  98.1049   6.0352 0106304 147.5535 213.2249 14.38049379156494
SAUDICOMSAT 1           
1 28369U 04025D   26201.97655039  .00000177  00000+0  51981-4 0  9996
2 28369  98.5779 213.0213 0030856 280.4848  79.2872 14.55496025169049
SAUDICOMSAT 2           
1 28370U 04025E   26202.00725221  .00000138  00000+0  47486-4 0  9996
2 28370  98.6644 215.2099 0055998 156.1568 204.2238 14.49996281165001
APRIZESAT 1             
1 28372U 04025G   26201.99698636  .00000146  00000+0  48054-4 0  9995
2 28372  98.6311 213.6435 0045558  53.5049 307.0329 14.51794158166810
NANOSAT-1               
1 28493U 04049B   26202.30691716  .00000687  00000+0  97703-4 0  9998
2 28493  98.2317 339.8113 0004229 165.5116 194.6217 14.80218446160496
SAUDICOMSAT 7           
1 31119U 07012C   26202.16841127  .00000405  00000+0  81412-4 0  9995
2 31119  98.3804 177.0002 0057030  89.9973 270.7765 14.66140947 27416
SAUDICOMSAT 6           
1 31121U 07012E   26201.88628432  .00000212  00000+0  50643-4 0  9996
2 31121  98.4122 170.0353 0070776 221.1411 138.4441 14.62587304 25118
SAUDICOMSAT 5           
1 31124U 07012H   26201.88975973  .00000419  00000+0  80838-4 0  9992
2 31124  98.3515 177.4563 0047874  21.1840 339.1333 14.68196924 28547
SAUDICOMSAT 3           
1 31125U 07012J   26202.13193217  .00000505  00000+0  90703-4 0  9993
2 31125  98.3169 178.2494 0037907 305.9932  53.7761 14.70755459 29818
SAUDICOMSAT 4           
1 31127U 07012L   26202.17916498  .00000301  00000+0  64931-4 0  9991
2 31127  98.4009 175.4476 0063948 151.1495 209.3268 14.64538911 26264
APRIZESAT 4             
1 35684U 09041D   26202.10736756  .00000480  00000+0  63918-4 0  9999
2 35684  98.1399 278.1023 0042602 209.9642 149.9133 14.83919294916394
APRIZESAT 3             
1 35686U 09041F   26202.00345657  .00000184  00000+0  21717-4 0  9998
2 35686  98.2107 356.8572 0060684 316.4447  43.1990 14.96317676921431
S-NET D                 
1 43186U 18014G   26201.97414599  .00003066  00000+0  15878-3 0  9991
2 43186  97.5322 106.5546 0006206 259.4528 100.6006 15.16949015463881
S-NET B                 
1 43187U 18014H   26202.11819614  .00003222  00000+0  16682-3 0  9994
2 43187  97.5327 106.6854 0006899 253.2337 106.8139 15.16919969463901
S-NET A                 
1 43188U 18014J   26202.17072816  .00003331  00000+0  17219-3 0  9994
2 43188  97.5337 106.9529 0006762 253.7845 106.2644 15.16958906463913
S-NET C                 
1 43189U 18014K   26202.12225754  .00003165  00000+0  16397-3 0  9992
2 43189  97.5353 106.9845 0008233 245.3941 114.6435 15.16910833462458
SALSAT                  
1 46495U 20068K   26202.28424147  .00005612  00000+0  19458-3 0  9991
2 46495  97.8867 207.4380 0009855 171.6754 188.4651 15.30225780320570
OOV-CUBE (TUBSAT-30)    
1 60240U 24128F   26202.25512878  .00001346  00000+0  11388-3 0  9996
2 60240  61.9942 106.7689 0040321 141.3942 219.0045 15.02890258111235
LPNTSAT-001 (IOD-1)     
1 68408U 26065A   26202.07667089  .00001664  00000+0  83308-4 0  9992
2 68408  97.3973  81.8646 0014759 243.6918 116.2801 15.18687340 17402
CHUANG XIN 26 (CX-26)   
1 69972U 26158A   26202.08755412 -.00000149  00000+0  44655-5 0  9992
2 69972  49.9829 255.5510 0004955 319.4363  40.6181 14.25124294  1545
